COSMOS 2242             
1 22626U 93024A   26062.08336529  .00002113  00000+0  18334-3 0  9996
2 22626  82.5158 273.0370 0015706 332.5365  27.5025 14.96516179779404
SL-16 R/B               
1 22803U 93059B   26062.12459449  .00000051  00000+0  49145-4 0  9997
2 22803  70.9919  24.9697 0018820 225.8267 134.1310 14.17232011678602
ARIANE 40 R/B           
1 22830U 93061H   26062.20433065  .00000240  00000+0  10363-3 0  9994
2 22830  98.4931 131.2197 0009673 306.5272  53.5021 14.32856840693178
COSMOS 2278             
1 23087U 94023A   26061.80824060  .00000329  00000+0  19661-3 0  9990
2 23087  71.0540 189.4927 0007614  27.3073 332.8449 14.14374940643833
SL-16 R/B               
1 23088U 94023B   26062.14056861 -.00000092  00000+0 -23017-4 0  9995
2 23088  70.9987  84.6421 0005591 291.9392  68.1136 14.15013440645163
SL-16 R/B               
1 23343U 94074B   26062.09784963  .00000583  00000+0  84858-4 0  9993
2 23343  97.7117  93.1824 0005358 235.9473 187.4192 14.79398708686277
SL-16 R/B               
1 23405U 94077B   26062.12473428 -.00000252  00000+0 -10424-3 0  9992
2 23405  70.9851   6.2989 0003463 221.2829 138.8032 14.15562420615302
ARIANE 40+ R/B          
1 23561U 95021B   26062.20659756  .00000349  00000+0  12508-3 0  9994
2 23561  98.4511 133.7767 0007370 153.7854 225.2684 14.39766786618316
SL-16 R/B               
1 23705U 95058B   26061.77806798 -.00000072  00000+0 -12568-4 0  9997
2 23705  71.0209 194.7644 0011039 138.0048 222.1923 14.15492688566872
SL-16 R/B               
1 24298U 96051B   26061.87140951  .00000079  00000+0  69137-4 0  9991
2 24298  70.7594 189.6692 0015692 158.1002 202.0792 14.12413544520682
ORBVIEW 2 (SEASTAR)     
1 24883U 97037A   26062.07499175  .00000397  00000+0  15424-3 0  9996
2 24883  98.8554 226.2119 0003185  85.2738 274.8811 14.35488921507524
SL-16 R/B               
1 25400U 98043G   26061.85558772  .00000078  00000+0  51498-4 0  9992
2 25400  98.8243  15.1711 0010550  39.2642 320.9300 14.26047932438011
SL-16 R/B               
1 25407U 98045B   26061.79239831 -.00000238  00000+0 -96012-4 0  9997
2 25407  71.0112 196.0774 0006344  18.8432 341.2924 14.16189648426127
ISS (ZARYA)             
1 25544U 98067A   26061.93054995  .00009325  00000+0  18075-3 0  9991
2 25544  51.6319 105.7724 0008215 150.8374 209.3074 15.48408287555284
CZ-4B R/B               
1 25732U 99025C   26062.10313328  .00000074  00000+0  56463-4 0  9999
2 25732  98.6640 106.5404 0037120   5.6258  48.8396 14.18263792387237
OKEAN-O                 
1 25860U 99039A   26062.16298375  .00000795  00000+0  11112-3 0  9997
2 25860  97.9456 122.1204 0001453  71.2203 288.9166 14.80322800433427
SL-16 R/B               
1 25861U 99039B   26062.14899943  .00000711  00000+0  96997-4 0  9997
2 25861  97.9980 121.2550 0013453 279.5676  80.4016 14.81720640435891
