[{"OBJECT_NAME":"COSMOS 2242","OBJECT_ID":"1993-024A","EPOCH":"2026-03-03T02:00:02.761056","MEAN_MOTION":14.96516179,"ECCENTRICITY":0.0015706,"INCLINATION":82.5158,"RA_OF_ASC_NODE":273.037,"ARG_OF_PERICENTER":332.5365,"MEAN_ANOMALY":27.5025,"EPHEMERIS_TYPE":0,"CLASSIFICATION_TYPE":"U","NORAD_CAT_ID":22626,"ELEMENT_SET_NO":999,"REV_AT_EPOCH":77940,"BSTAR":0.00018334,"MEAN_MOTION_DOT":2.113e-5,"MEAN_MOTION_DDOT":0},{"OBJECT_NAME":"SL-16 R/B","OBJECT_ID":"1993-059B","EPOCH":"2026-03-03T02:59:24.963936","MEAN_MOTION":14.17232011,"ECCENTRICITY":0.001882,"INCLINATION":70.9919,"RA_OF_ASC_NODE":24.9697,"ARG_OF_PERICENTER":225.8267,"MEAN_ANOMALY":134.131,"EPHEMERIS_TYPE":0,"CLASSIFICATION_TYPE":"U","NORAD_CAT_ID":22803,"ELEMENT_SET_NO":999,"REV_AT_EPOCH":67860,"BSTAR":4.9145e-5,"MEAN_MOTION_DOT":5.1e-7,"MEAN_MOTION_DDOT":0},{"OBJECT_NAME":"ARIANE 40 R/B","OBJECT_ID":"1993-061H","EPOCH":"2026-03-03T04:54:14.168160","MEAN_MOTION":14.3285684,"ECCENTRICITY":0.0009673,"INCLINATION":98.4931,"RA_OF_ASC_NODE":131.2197,"ARG_OF_PERICENTER":306.5272,"MEAN_ANOMALY":53.5021,"EPHEMERIS_TYPE":0,"CLASSIFICATION_TYPE":"U","NORAD_CAT_ID":22830,"ELEMENT_SET_NO":999,"REV_AT_EPOCH":69317,"BSTAR":0.00010363,"MEAN_MOTION_DOT":2.4e-6,"MEAN_MOTION_DDOT":0},{"OBJECT_NAME":"COSMOS 2278","OBJECT_ID":"1994-023A","EPOCH":"2026-03-02T19:23:51.987840","MEAN_MOTION":14.1437494,"ECCENTRICITY":0.00076141,"INCLINATION":71.054,"RA_OF_ASC_NODE":189.4927,"ARG_OF_PERICENTER":27.3073,"MEAN_ANOMALY":332.8449,"EPHEMERIS_TYPE":0,"CLASSIFICATION_TYPE":"U","NORAD_CAT_ID":23087,"ELEMENT_SET_NO":999,"REV_AT_EPOCH":64383,"BSTAR":0.00019661451,"MEAN_MOTION_DOT":3.29e-6,"MEAN_MOTION_DDOT":0},{"OBJECT_NAME":"SL-16 R/B","OBJECT_ID":"1994-023B","EPOCH":"2026-03-03T03:22:25.127904","MEAN_MOTION":14.1501344,"ECCENTRICITY":0.0005591,"INCLINATION":70.9987,"RA_OF_ASC_NODE":84.6421,"ARG_OF_PERICENTER":291.9392,"MEAN_ANOMALY":68.1136,"EPHEMERIS_TYPE":0,"CLASSIFICATION_TYPE":"U","NORAD_CAT_ID":23088,"ELEMENT_SET_NO":999,"REV_AT_EPOCH":64516,"BSTAR":-2.3017e-5,"MEAN_MOTION_DOT":-9.2e-7,"MEAN_MOTION_DDOT":0},{"OBJECT_NAME":"SL-16 R/B","OBJECT_ID":"1994-074B","EPOCH":"2026-03-03T02:20:54.208032","MEAN_MOTION":14.79398708,"ECCENTRICITY":0.0005358,"INCLINATION":97.7117,"RA_OF_ASC_NODE":93.1824,"ARG_OF_PERICENTER":235.9473,"MEAN_ANOMALY":187.4192,"EPHEMERIS_TYPE":0,"CLASSIFICATION_TYPE":"U","NORAD_CAT_ID":23343,"ELEMENT_SET_NO":999,"REV_AT_EPOCH":68627,"BSTAR":8.4858e-5,"MEAN_MOTION_DOT":5.83e-6,"MEAN_MOTION_DDOT":0},{"OBJECT_NAME":"SL-16 R/B","OBJECT_ID":"1994-077B","EPOCH":"2026-03-03T02:59:37.041792","MEAN_MOTION":14.1556242,"ECCENTRICITY":0.0003463,"INCLINATION":70.9851,"RA_OF_ASC_NODE":6.2989,"ARG_OF_PERICENTER":221.2829,"MEAN_ANOMALY":138.8032,"EPHEMERIS_TYPE":0,"CLASSIFICATION_TYPE":"U","NORAD_CAT_ID":23405,"ELEMENT_SET_NO":999,"REV_AT_EPOCH":61530,"BSTAR":-0.00010424,"MEAN_MOTION_DOT":-2.52e-6,"MEAN_MOTION_DDOT":0},{"OBJECT_NAME":"ARIANE 40+ R/B","OBJECT_ID":"1995-021B","EPOCH":"2026-03-03T04:57:30.029184","MEAN_MOTION":14.39766786,"ECCENTRICITY":0.000737,"INCLINATION":98.4511,"RA_OF_ASC_NODE":133.7767,"ARG_OF_PERICENTER":153.7854,"MEAN_ANOMALY":225.2684,"EPHEMERIS_TYPE":0,"CLASSIFICATION_TYPE":"U","NORAD_CAT_ID":23561,"ELEMENT_SET_NO":999,"REV_AT_EPOCH":61831,"BSTAR":0.00012508,"MEAN_MOTION_DOT":3.49e-6,"MEAN_MOTION_DDOT":0},{"OBJECT_NAME":"SL-16 R/B","OBJECT_ID":"1995-058B","EPOCH":"2026-03-02T18:40:25.073472","MEAN_MOTION":14.15492688,"ECCENTRICITY":0.00110394,"INCLINATION":71.0209,"RA_OF_ASC_NODE":194.7644,"ARG_OF_PERICENTER":138.0048,"MEAN_ANOMALY":222.1923,"EPHEMERIS_TYPE":0,"CLASSIFICATION_TYPE":"U","NORAD_CAT_ID":23705,"ELEMENT_SET_NO":999,"REV_AT_EPOCH":56687,"BSTAR":-1.2568173e-5,"MEAN_MOTION_DOT":-7.2e-7,"MEAN_MOTION_DDOT":0},{"OBJECT_NAME":"SL-16 R/B","OBJECT_ID":"1996-051B","EPOCH":"2026-03-02T20:54:49.781664","MEAN_MOTION":14.12413544,"ECCENTRICITY":0.0015692,"INCLINATION":70.7594,"RA_OF_ASC_NODE":189.6692,"ARG_OF_PERICENTER":158.1002,"MEAN_ANOMALY":202.0792,"EPHEMERIS_TYPE":0,"CLASSIFICATION_TYPE":"U","NORAD_CAT_ID":24298,"ELEMENT_SET_NO":999,"REV_AT_EPOCH":52068,"BSTAR":6.9137e-5,"MEAN_MOTION_DOT":7.9e-7,"MEAN_MOTION_DDOT":0},{"OBJECT_NAME":"ORBVIEW 2 (SEASTAR)","OBJECT_ID":"1997-037A","EPOCH":"2026-03-03T01:47:59.287200","MEAN_MOTION":14.35488921,"ECCENTRICITY":0.0003185,"INCLINATION":98.8554,"RA_OF_ASC_NODE":226.2119,"ARG_OF_PERICENTER":85.2738,"MEAN_ANOMALY":274.8811,"EPHEMERIS_TYPE":0,"CLASSIFICATION_TYPE":"U","NORAD_CAT_ID":24883,"ELEMENT_SET_NO":999,"REV_AT_EPOCH":50752,"BSTAR":0.00015424,"MEAN_MOTION_DOT":3.97e-6,"MEAN_MOTION_DDOT":0},{"OBJECT_NAME":"SL-16 R/B","OBJECT_ID":"1998-043G","EPOCH":"2026-03-02T20:32:02.779008","MEAN_MOTION":14.26047932,"ECCENTRICITY":0.00105506,"INCLINATION":98.8243,"RA_OF_ASC_NODE":15.1711,"ARG_OF_PERICENTER":39.2642,"MEAN_ANOMALY":320.93,"EPHEMERIS_TYPE":0,"CLASSIFICATION_TYPE":"U","NORAD_CAT_ID":25400,"ELEMENT_SET_NO":999,"REV_AT_EPOCH":43801,"BSTAR":5.1498448e-5,"MEAN_MOTION_DOT":7.8e-7,"MEAN_MOTION_DDOT":0},{"OBJECT_NAME":"SL-16 R/B","OBJECT_ID":"1998-045B","EPOCH":"2026-03-02T19:01:03.213984","MEAN_MOTION":14.16189648,"ECCENTRICITY":0.00063447,"INCLINATION":71.0112,"RA_OF_ASC_NODE":196.0774,"ARG_OF_PERICENTER":18.8432,"MEAN_ANOMALY":341.2924,"EPHEMERIS_TYPE":0,"CLASSIFICATION_TYPE":"U","NORAD_CAT_ID":25407,"ELEMENT_SET_NO":999,"REV_AT_EPOCH":42612,"BSTAR":-9.6011898e-5,"MEAN_MOTION_DOT":-2.38e-6,"MEAN_MOTION_DDOT":0},{"OBJECT_NAME":"ISS (ZARYA)","OBJECT_ID":"1998-067A","EPOCH":"2026-03-02T22:19:59.515680","MEAN_MOTION":15.48408287,"ECCENTRICITY":0.0008215,"INCLINATION":51.6319,"RA_OF_ASC_NODE":105.7724,"ARG_OF_PERICENTER":150.8374,"MEAN_ANOMALY":209.3074,"EPHEMERIS_TYPE":0,"CLASSIFICATION_TYPE":"U","NORAD_CAT_ID":25544,"ELEMENT_SET_NO":999,"REV_AT_EPOCH":55528,"BSTAR":0.00018075,"MEAN_MOTION_DOT":9.325e-5,"MEAN_MOTION_DDOT":0},{"OBJECT_NAME":"CZ-4B R/B","OBJECT_ID":"1999-025C","EPOCH":"2026-03-03T02:28:30.715392","MEAN_MOTION":14.18263792,"ECCENTRICITY":0.003712,"INCLINATION":98.664,"RA_OF_ASC_NODE":106.5404,"ARG_OF_PERICENTER":5.6258,"MEAN_ANOMALY":48.8396,"EPHEMERIS_TYPE":0,"CLASSIFICATION_TYPE":"U","NORAD_CAT_ID":25732,"ELEMENT_SET_NO":999,"REV_AT_EPOCH":38723,"BSTAR":5.6463e-5,"MEAN_MOTION_DOT":7.4e-7,"MEAN_MOTION_DDOT":0},{"OBJECT_NAME":"OKEAN-O","OBJECT_ID":"1999-039A","EPOCH":"2026-03-03T03:54:41.796000","MEAN_MOTION":14.803228,"ECCENTRICITY":0.0001453,"INCLINATION":97.9456,"RA_OF_ASC_NODE":122.1204,"ARG_OF_PERICENTER":71.2203,"MEAN_ANOMALY":288.9166,"EPHEMERIS_TYPE":0,"CLASSIFICATION_TYPE":"U","NORAD_CAT_ID":25860,"ELEMENT_SET_NO":999,"REV_AT_EPOCH":43342,"BSTAR":0.00011112,"MEAN_MOTION_DOT":7.95e-6,"MEAN_MOTION_DDOT":0},{"OBJECT_NAME":"SL-16 R/B","OBJECT_ID":"1999-039B","EPOCH":"2026-03-03T03:34:33.550752","MEAN_MOTION":14.8172064,"ECCENTRICITY":0.0013453,"INCLINATION":97.998,"RA_OF_ASC_NODE":121.255,"ARG_OF_PERICENTER":279.5676,"MEAN_ANOMALY":80.4016,"EPHEMERIS_TYPE":0,"CLASSIFICATION_TYPE":"U","NORAD_CAT_ID":25861,"ELEMENT_SET_NO":999,"REV_AT_EPOCH":43589,"BSTAR":9.6997e-5,"MEAN_MOTION_DOT":7.11e-6,"MEAN_MOTION_DDOT":0}]
